{"spkid": "50713970", "covariance": {"epoch": "2457159.5", "elements": [{"label": "e", "value": ".4936118445258647", "title": "eccentricity", "units": null, "name": "e", "sigma": 1.59714039886889e-08}, {"title": "perihelion distance", "value": "1.048110125311368", "units": "au", "name": "q", "sigma": 3.0762475166213e-08, "label": "q"}, {"title": "time of perihelion passage", "value": "2457109.352849469994", "units": "TDB", "sigma": 2.13141411323871e-05, "name": "tp", "label": "tp"}, {"label": "node", "units": "deg", "title": "longitude of the ascending node", "value": "189.7770904777491", "sigma": 1.30404842889487e-05, "name": "om"}, {"value": "354.5341569224989", "title": "argument of perihelion", "units": "deg", "sigma": 2.05300183965431e-05, "name": "w", "label": "peri"}, {"label": "i", "sigma": 4.72204425260998e-06, "name": "i", "units": "deg", "value": "5.954887879525407", "title": "inclination"}], "data": [["2.550857453699062E-16", "-4.821753882875759E-16", "-1.558546553266271E-13", "-3.812253761234388E-14", "-1.193224709102789E-13", "-5.169669723433079E-15"], ["-4.821753882875759E-16", "9.463298783518703E-16", "2.877097147927406E-13", "6.583851636649612E-14", "2.247950398365284E-13", "1.080872027263782E-14"], ["-1.558546553266271E-13", "2.877097147927406E-13", "4.54292612211316E-10", "1.223372286864207E-10", "3.571510325435518E-10", "-2.720991636381138E-11"], ["-3.812253761234388E-14", "6.583851636649612E-14", "1.223372286864207E-10", "1.700542304903172E-10", "-4.168965020402567E-11", "-1.995397421654791E-11"], ["-1.193224709102789E-13", "2.247950398365284E-13", "3.571510325435518E-10", "-4.168965020402567E-11", "4.214816553623987E-10", "-9.788599846345119E-12"], ["-5.169669723433079E-15", "1.080872027263782E-14", "-2.720991636381138E-11", "-1.995397421654791E-11", "-9.788599846345119E-12", "2.229770192360696E-11"]], "labels": ["e", "q", "tp", "node", "peri", "i"]}, "elements": [{"name": "e", "sigma": "1.4259E-8", "title": "eccentricity", "value": ".4935772041906717", "units": null, "label": "e"}, {"name": "a", "sigma": "1.0603E-8", "units": "au", "value": "2.066173194974591", "title": "semi-major axis", "label": "a"}, {"label": "q", "units": "au", "value": "1.046357206025325", "title": "perihelion distance", "name": "q", "sigma": "2.8202E-8"}, {"name": "i", "sigma": "4.7262E-6", "value": "5.980817917365738", "title": "inclination; angle with respect to x-y ecliptic plane", "units": "deg", "label": "i"}, {"sigma": "1.301E-5", "name": "om", "title": "longitude of the ascending node", "value": "189.635343980794", "units": "deg", "label": "node"}, {"units": "deg", "title": "argument of perihelion", "value": "355.0448280626937", "name": "w", "sigma": "2.036E-5", "label": "peri"}, {"label": "M", "title": "mean anomaly", "value": "274.9024024825436", "units": "deg", "sigma": "1.0977E-5", "name": "ma"}, {"label": "tp", "value": "2461456.926739250043", "title": "time of perihelion passage", "units": "TDB", "sigma": "3.4473E-5", "name": "tp"}, {"label": "period", "units": "d", "value": "1084.797089730749", "title": "sidereal orbital period", "sigma": "8.3503E-6", "name": "per"}, {"name": "n", "sigma": "2.5545E-9", "value": ".3318592973819219", "title": "mean motion", "units": "deg/d", "label": "n"}, {"label": "Q", "sigma": "1.5836E-8", "name": "ad", "units": "au", "value": "3.085989183923857", "title": "aphelion distance"}], "epoch": "2461200.5"}